KUIPER-00513            
1 69598U 26140G   26190.61253992  .00026350  00000+0  69986-3 0  9991
2 69598  51.8820 290.2737 0007047 316.5040  43.5391 15.38069388  4684
KUIPER-00516            
1 69599U 26140H   26190.61880120  .00012103  00000+0  33370-3 0  9990
2 69599  51.8784 290.3069 0006835 334.1487  25.9157 15.37505084  4689
KUIPER-00517            
1 69600U 26140J   26191.76879797  .00036214  00000+0  93389-3 0  9993
2 69600  51.8769 284.5171 0010548 276.2013  83.7773 15.38782213  4869
KUIPER-00520            
1 69601U 26140K   26190.61986370  .00026029  00000+0  70279-3 0  9999
2 69601  51.8793 290.3215 0006880 333.8181  26.2457 15.37569154  4688
KUIPER-00522            
1 69602U 26140L   26191.76507968  .00017206  00000+0  45258-3 0  9995
2 69602  51.8779 284.4982 0013177 248.4220 111.5363 15.38590332  4867
KUIPER-00528            
1 69603U 26140M   26190.62200721  .00024351  00000+0  66169-3 0  9990
2 69603  51.8764 290.3271 0005926 340.6948  19.3813 15.37415170  4684
KUIPER-00532            
1 69604U 26140N   26191.73572689  .00001390  00000+0  48974-4 0  9992
2 69604  51.8765 285.0357 0005524  15.1321 344.9829 15.36637791  4852
KUIPER-00533            
1 69605U 26140P   26190.60899255  .00012480  00000+0  33629-3 0  9991
2 69605  51.8775 290.2427 0007954 306.5126  53.5128 15.38181942  4689
KUIPER-00534            
1 69606U 26140Q   26191.76016688  .00018450  00000+0  48352-3 0  9993
2 69606  51.8812 284.4724 0013568 247.7189 112.2360 15.38647112  4867
KUIPER-00537            
1 69607U 26140R   26191.75295227  .00017610  00000+0  53186-3 0  9999
2 69607  51.8775 285.1573 0010811  40.3192 319.8593 15.34281454  4856
KUIPER-00538            
1 69608U 26140S   26191.78755763  .00022003  00000+0  59406-3 0  9992
2 69608  51.8801 284.6464 0006367 326.1928  33.8652 15.37674850  4862
KUIPER-00540            
1 69609U 26140T   26191.60221450  .00018092  00000+0  50281-3 0  9990
2 69609  51.8833 285.6586 0006428  10.6370 349.4751 15.36908561  4839
KUIPER-00541            
1 69610U 26140U   26191.77848110  .00017654  00000+0  46807-3 0  9990
2 69610  51.8789 284.5871 0007704 305.5272  54.4996 15.38379378  4868
KUIPER-00542            
1 69611U 26140V   26191.77692769  .00023837  00000+0  63000-3 0  9992
2 69611  51.8786 284.5729 0007549 285.3956  74.6197 15.38276853  4860
KUIPER-00543            
1 69612U 26140W   26190.63093524  .00011141  00000+0  31556-3 0  9997
2 69612  51.8763 290.3813 0007703  16.9946 343.1297 15.36747809  4681
KUIPER-00544            
1 69613U 26140X   26191.78109487  .00027485  00000+0  72796-3 0  9990
2 69613  51.8812 284.6053 0007076 308.8347  51.2008 15.38131723  4861
KUIPER-00546            
1 69614U 26140Y   26191.76096485  .00030938  00000+0  79775-3 0  9993
2 69614  51.8776 284.4708 0014464 245.8653 114.0823 15.38814926  4861
KUIPER-00547            
1 69615U 26140Z   26191.77451656  .00017472  00000+0  47100-3 0  9995
2 69615  51.8821 284.5670 0010813 274.6951  85.2801 15.37847980  4867
KUIPER-00549            
1 69616U 26140AA  26191.79328512  .00028424  00000+0  77307-3 0  9993
2 69616  51.8776 284.6776 0007957   0.6549 359.4447 15.37287706  4866
KUIPER-00550            
1 69617U 26140AB  26190.85001609 -.00075643  00000+0 -23442-2 0  9992
2 69617  51.8790 289.5986 0007274  38.0407 322.1091 15.33047749  4713
KUIPER-00551            
1 69618U 26140AC  26191.76754649  .00031830  00000+0  83278-3 0  9995
2 69618  51.8758 284.5105 0012348 254.2975 105.6650 15.38381561  4865
KUIPER-00554            
1 69619U 26140AD  26191.25298191  .00022076  00000+0  59105-3 0  9999
2 69619  51.8775 287.0639 0010891 274.9137  85.0606 15.37895633  4787
KUIPER-00555            
1 69620U 26140AE  26191.77007604 -.00057717  00000+0 -15269-2 0  9999
2 69620  51.8822 284.5241 0011295 253.2646 106.7102 15.37809087  4866
KUIPER-00556            
1 69621U 26140AF  26191.25026391  .00020618  00000+0  54617-3 0  9996
2 69621  51.8812 287.0516 0011650 251.0389 108.9336 15.38260697  4787
KUIPER-00557            
1 69622U 26140AG  26191.77749363  .00015968  00000+0  43621-3 0  9990
2 69622  51.8794 284.5803 0009810 280.2133  79.7748 15.37516845  4863
KUIPER-00560            
1 69623U 26140AH  26191.57604172  .00029128  00000+0  75380-3 0  9997
2 69623  51.8781 285.4808 0008505 293.7135  66.2960 15.38803489  4834
KUIPER-00561            
1 69624U 26140AJ  26191.25379120  .00021594  00000+0  56479-3 0  9992
2 69624  51.8821 287.0794 0008110 293.2180  66.7953 15.38655455  4788
KUIPER-00564            
1 69625U 26140AK  26191.33336806 -.00001914  00000+0 -40894-4 0  9997
2 69625  51.8816 286.6867 0009261 280.2463 161.3962 15.37260467  4042
KUIPER-00567            
1 69626U 26140AL  26191.76783135  .00213007  00000+0  54503-2 0  9992
2 69626  51.8786 284.5160 0014214 269.5283  90.4076 15.37993440  4868
KUIPER-00573            
1 69627U 26140AM  26191.78107899  .00017777  00000+0  48619-3 0  9990
2 69627  51.8780 284.5973 0009339 267.6169  92.3748 15.37401065  4863
KZ-11 R/B               
1 69628U 26138H   26191.44386325  .00806530  96914-5  80826-3 0  9998
2 69628  55.1536 178.8749 0391831 137.5058 225.7022 15.39315078  3517
CENTISPACE-1 GROUP 05 O*
1 69636U 26138J   26191.72188179 -.00000326  00000+0 -87117-4 0  9992
2 69636  55.1383 194.2141 0009313 335.0394  25.0129 14.15843194  3329
VICTUS HAZE PUMA        
1 69646U 26142A   26191.83697738  .00002446  00000+0  11320-3 0  9991
2 69646  97.4474  89.1909 0025108 282.1274  77.7149 15.20828879  3262
HOKUSHIN-1              
1 69648U 98067YH  26191.46030940  .00017360  00000+0  30219-3 0  9992
2 69648  51.6308 184.7285 0006137 312.4876  47.5594 15.50847781  3262
STARLINK-37656          
1 69649U 26143A   26191.83335647 -.00019249  00000+0 -35309-3 0  9997
2 69649  97.2856 235.6747 0000946  99.3465 311.8921 15.49192378  4268
STARLINK-37646          
1 69650U 26143B   26191.83335647 -.02458935  00000+0 -41676-1 0  9992
2 69650  97.2855 235.8503 0001669  53.8032  36.1124 15.55306234  4266
STARLINK-37749          
1 69651U 26143C   26191.83335647 -.03197010  00000+0 -60990-1 0  9998
2 69651  97.2843 235.8380 0000852  77.5918 344.4891 15.51827228  4269
STARLINK-37819          
1 69652U 26143D   26191.83335647 -.02325041  00000+0 -45843-1 0  9995
2 69652  97.2850 235.8093 0001662  92.2281 266.1105 15.50926231  4267
STARLINK-37729          
1 69653U 26143E   26191.33336806  .00060128  00000+0  28754-3 0  9991
2 69653  97.2831 235.4414 0001152 188.4604 228.7308 15.82623624  4186
STARLINK-37838          
1 69654U 26143F   26191.83335647 -.02699119  00000+0 -42892-1 0  9998
2 69654  97.2851 235.8683 0001936  72.1751  74.1679 15.56767021  4267
STARLINK-37884          
1 69655U 26143G   26191.83335647 -.00014798  00000+0 -27083-3 0  9998
2 69655  97.2855 235.7872 0001269  75.9662 236.7304 15.49199760  4264
STARLINK-37876          
1 69656U 26143H   26191.83335647 -.02469755  00000+0 -42013-1 0  9996
2 69656  97.2863 235.8759 0001781  66.2724  83.8818 15.55224247  4166
STARLINK-37784          
1 69657U 26143J   26191.83335647 -.00004046  00000+0 -72801-4 0  9994
2 69657  97.2849 235.8040 0001689  71.9307 282.4193 15.49176101  4162
STARLINK-37851          
1 69658U 26143K   26191.83335647 -.02432055  00000+0 -44099-1 0  9997
2 69658  97.2858 235.8731 0001859  71.7519  72.3265 15.53423266  4159
STARLINK-37229          
1 69659U 26143L   26191.83335647 -.00669921  00000+0 -13198-1 0  9996
2 69659  97.2852 235.8237 0001640  99.9511 301.1107 15.49614945  4202
STARLINK-37556          
1 69660U 26143M   26191.83335647 -.02329743  00000+0 -41458-1 0  9995
2 69660  97.2865 235.8532 0001559  76.0433  22.1463 15.53769302  4202
STARLINK-37867          
1 69661U 26143N   26191.83335647 -.02411744  00000+0 -43831-1 0  9996
2 69661  97.2857 235.8733 0001512  70.2422  72.5322 15.53330235  4167
STARLINK-37852          
1 69662U 26143P   26191.83335647 -.00000292  00000+0 -37001-5 0  9993
2 69662  97.2849 235.7940 0001552  79.0437 252.4283 15.49165306  4160
STARLINK-37554          
1 69663U 26143Q   26191.83335647 -.01478368  00000+0 -26865-1 0  9990
2 69663  97.2853 235.8490 0001326  66.9577  23.1645 15.52733014  4207
STARLINK-37830          
1 69664U 26143R   26191.83335647 -.00001387  00000+0 -23852-4 0  9999
2 69664  97.2851 235.8105 0001852  88.1435 283.3224 15.49168417  4154
STARLINK-37837          
1 69665U 26143S   26191.83335647 -.02466892  00000+0 -40690-1 0  9994
2 69665  97.2859 235.8703 0001976  63.4640  75.5161 15.56047569  4162
STARLINK-37943          
1 69666U 26143T   26191.83335647 -.00000640  00000+0 -10121-4 0  9997
2 69666  97.2851 235.8126 0001900  79.1499 295.2839 15.49158595  4164
STARLINK-37941          
1 69667U 26143U   26191.83335647 -.03031194  00000+0 -59588-1 0  9996
2 69667  97.2851 235.8458 0001373  82.8318   0.7208 15.51451936  4165
STARLINK-37930          
1 69668U 26143V   26191.83335647 -.02452345  00000+0 -44133-1 0  9991
2 69668  97.2858 235.8456 0001329  81.3378 359.9695 15.53669798  4159
STARLINK-37945          
1 69669U 26143W   26191.83335647 -.02439842  00000+0 -44022-1 0  9996
2 69669  97.2857 235.8761 0001859  68.1858  85.0744 15.53571853  4169
STARLINK-37948          
1 69670U 26143X   26191.83335647 -.00004329  00000+0 -77955-4 0  9998
2 69670  97.2865 235.7634 0001034  88.9874 163.6900 15.49194039  4160
STARLINK-37949          
1 69671U 26143Y   26191.83335647 -.00013856  00000+0 -25364-3 0  9990
2 69671  97.2851 235.8180 0000830  57.1299 331.4933 15.49180567  4167
STARLINK-37946          
1 69672U 26143Z   26191.83335647 -.00013900  00000+0 -25453-3 0  9990
2 69672  97.2856 235.8544 0001467  71.5269  34.8368 15.49169608  4160
TJS-26A                 
1 69674U 26144A   26191.73075990 -.00000335  00000+0  00000+0 0  9998
2 69674   6.9565 323.2282 0003513 343.7960 352.1905  1.00265482   172
CZ-7A R/B               
1 69675U 26144B   26191.40938697  .00458100 -71754-6  56582-3 0  9993
2 69675  19.4581 317.2694 7138189 192.6197 129.3644  2.53772939   441
